OBJECT_NAME,OBJECT_ID,EPOCH,MEAN_MOTION,ECCENTRICITY,INCLINATION,RA_OF_ASC_NODE,ARG_OF_PERICENTER,MEAN_ANOMALY,EPHEMERIS_TYPE,CLASSIFICATION_TYPE,NORAD_CAT_ID,ELEMENT_SET_NO,REV_AT_EPOCH,BSTAR,MEAN_MOTION_DOT,MEAN_MOTION_DDOT
NEMO-HD,2020-061F,2026-06-30T22:15:52.886016,15.44867476,.00016134,97.1913,243.7435,74.7168,285.4260,0,U,46277,999,32410,.25554661E-3,.11911E-3,0
SENTINEL-6A,2020-086A,2026-06-30T17:58:13.940544,12.80929946,.00078354,66.0412,106.8857,269.9702,90.0415,0,U,46984,999,26206,.6802254E-5,-.59E-6,0
CAS500-1,2021-022A,2026-06-30T22:50:51.725184,15.20125554,.00034253,97.3888,76.9263,229.7630,130.3306,0,U,47932,999,29285,.29102166E-3,.6225E-4,0
GAOFEN-12 02,2021-026A,2026-06-30T22:44:43.558368,14.80306611,.0004767,97.9925,180.0722,172.4407,187.6878,0,U,48079,999,28379,.56233729E-4,.376E-5,0
PLEIADES NEO 3,2021-034A,2026-06-30T23:05:37.688064,14.81672430,.00013492,97.8941,256.5300,93.8558,266.2809,0,U,48268,999,27969,.28370178E-4,.171E-5,0
PLEIADES NEO 4,2021-073E,2026-06-30T22:16:58.725408,14.81676539,.00013665,97.8939,256.4934,88.9399,271.1970,0,U,49070,999,26340,.83052638E-4,.602E-5,0
LANDSAT 9,2021-088A,2026-06-30T22:19:57.105120,14.57106540,.00012149,98.2277,251.9414,86.6472,273.4865,0,U,49260,999,25300,.90467193E-4,.362E-5,0
CSG-2,2022-008A,2026-06-30T22:11:37.322592,14.82153339,.00015236,97.8879,5.3229,84.4682,275.6705,0,U,51444,999,23862,.57290587E-4,.404E-5,0
GAOFEN-12 03,2022-069A,2026-06-30T21:53:55.578048,14.80055364,.00024021,97.8269,69.4365,88.2504,271.8983,0,U,52912,999,21664,.13836792E-3,.997E-5,0
SWOT,2022-173A,2026-06-30T22:07:26.398848,14.00171154,.00003113,77.6102,16.7680,88.3111,271.8076,0,U,54754,999,18107,.5565877E-4,.8E-6,0
GAOFEN-12 04,2023-123A,2026-06-30T22:18:08.018208,14.79751840,.00039583,97.9114,99.7455,78.9236,281.2421,0,U,57654,999,15466,.1359718E-3,.971E-5,0
PARS 1,2024-039Q,2026-06-30T23:20:48.670656,15.46011737,.00112333,97.4827,163.3294,71.0841,289.1625,0,U,59065,999,13077,.26793394E-3,.13017E-3,0
RESURS-P 4,2024-061A,2026-06-30T23:28:29.754624,15.32208845,.00029572,97.2758,129.6374,109.6337,250.5225,0,U,59371,999,12587,.10718702E-3,.3257E-4,0
LEGION 1,2024-081A,2026-06-30T22:47:26.300544,15.16759550,.00082107,97.5019,259.6600,328.1640,31.9096,0,U,59625,999,11962,.22095036E-3,.4272E-4,0
LEGION 2,2024-081B,2026-06-30T21:55:53.474304,15.16736213,.00098945,97.5019,259.7217,290.6288,69.3883,0,U,59626,999,11962,.20883514E-3,.4032E-4,0
ALOS-4 (DAICHI-4),2024-123A,2026-06-30T22:56:05.979264,14.79469376,.00016319,97.9219,278.9341,97.9492,262.1905,0,U,60182,999,10791,.21134077E-3,.1527E-4,0
LEGION 3,2024-146A,2026-06-30T20:04:27.071616,15.16054681,.0008826,45.0023,317.3502,246.6687,113.3264,0,U,60452,999,10409,.25904443E-3,.481E-4,0
LEGION 4,2024-146B,2026-06-30T21:43:35.169888,15.16140143,.00121349,45.0024,48.8887,24.1950,335.9496,0,U,60453,999,10295,.2614042E-3,.4871E-4,0
SENTINEL-2C,2024-157A,2026-06-30T22:46:12.155520,14.30821508,.00009006,98.5691,256.5361,93.3020,266.8266,0,U,60989,999,9495,.61861326E-4,.119E-5,0
IONOSFERA-M 1,2024-199A,2026-06-30T21:46:33.902112,14.22756771,.00021886,98.7155,54.9337,92.1011,268.0418,0,U,61735,999,12965,.42177707E-4,.51E-6,0
IONOSFERA-M 2,2024-199B,2026-06-30T22:35:54.143232,14.22760097,.00004632,98.7154,54.8781,46.1170,314.0046,0,U,61736,999,13278,.48098779E-4,.64E-6,0
PRSC-EO1,2025-012A,2026-06-29T07:45:24.437664,15.17758644,.00058235,97.4228,252.5458,202.3113,157.7868,0,U,62725,999,8003,.31012403E-3,.6199E-4,0
BIOMASS,2025-090A,2026-06-30T22:40:33.043296,14.66987094,.00012126,98.0745,9.0580,89.5340,270.6003,0,U,63772,999,6270,.20081036E-3,.1077E-4,0
GOSAT-GW (IBUKI GW),2025-141A,2026-06-30T23:06:26.320032,14.67555123,.0001426,98.0569,119.0561,84.3422,275.7946,0,U,64694,999,5386,.13132652E-3,.697E-5,0
IONOSFERA-M 3,2025-155A,2026-06-30T21:37:45.968736,14.21488674,.00017399,98.6031,143.4614,134.0765,226.0556,0,U,64876,999,4835,.33129765E-4,.3E-6,0
IONOSFERA-M 4,2025-155B,2026-06-30T22:27:54.288000,14.21491104,.00014973,98.6030,143.4125,112.5221,247.6115,0,U,64877,999,4835,.40152149E-4,.45E-6,0
MICROCARB,2025-156A,2026-06-30T22:39:52.898400,14.72857561,.00164132,97.9949,258.8478,216.7925,143.2157,0,U,64899,999,4999,.98155207E-4,.579E-5,0
CO3D 3,2025-156B,2026-06-30T22:40:13.088352,15.20199695,.00018199,97.4334,260.4398,112.9708,247.1719,0,U,64900,999,5162,.22179254E-3,.4736E-4,0
CO3D 4,2025-156C,2026-06-30T16:21:18.213120,15.20185063,.00006588,97.4335,260.1801,185.0478,175.0751,0,U,64901,999,5158,.11468465E-3,.2415E-4,0
CO3D 2,2025-156D,2026-06-30T21:52:25.469760,15.20201137,.00014739,97.4335,260.3058,94.6516,265.4887,0,U,64902,999,5161,.23599096E-3,.5044E-4,0
CO3D 1,2025-156E,2026-06-30T21:52:38.707104,15.20206219,.00013598,97.4336,260.3060,104.6960,255.4426,0,U,64903,999,5161,.23078163E-3,.4932E-4,0
PRSC-S1,2025-164A,2026-06-30T22:05:48.652800,15.06552859,.00050005,41.1288,210.4593,88.2844,271.8542,0,U,65055,999,5050,.20654264E-3,.2933E-4,0
SENTINEL-6B,2025-264A,2026-06-30T17:58:44.003424,12.80929939,.0007918,66.0411,107.0111,268.8985,91.1124,0,U,66514,999,2890,-.516802E-6,-.61E-6,0
CAS500-3,2025-274F,2026-06-30T09:25:06.257856,14.88352436,.00069353,97.7444,109.1431,76.5580,283.6409,0,U,66655,999,3211,.14439281E-3,.1283E-4,0
CSG-3,2026-001A,2026-06-30T23:18:28.105632,14.82163125,.00014862,97.8889,5.3734,95.5690,264.5693,0,U,67304,999,2650,.49127422E-4,.339E-5,0
PRSC-E03,2026-092A,2026-06-30T21:46:01.039008,15.06742516,.00030457,38.0021,8.7745,147.4614,212.6336,0,U,68835,999,1002,.22628116E-3,.3322E-4,0
CAS500-2,2026-100AK,2026-06-30T23:17:53.170656,15.20751719,.00091297,97.3890,79.5717,348.9968,11.1066,0,U,69013,999,890,.32042968E-3,.6994E-4,0
